     3.02           N: GNSS NAV DATA    E: GALILEO          RINEX VERSION / TYPE
CHC                 CHC                 20250609 012159 UTC PGM / RUN BY / DATE 
    18                                                      LEAP SECONDS        
                                                            END OF HEADER       
E13 2025  6  9  0 10  0 -3.54708754458D-05 -5.25801624462D-13  0.00000000000D+00
      1.80000000000D+01 -1.06812500000D+02  2.62582366181D-09 -1.12581238763D+00
     -4.77395951748D-06  1.73959066160D-04  6.44475221634D-07  5.44060351181D+03
      8.70000000000D+04 -2.79396772385D-08  1.66340965761D+00 -3.16649675369D-08
      9.99228283537D-01  3.41125000000D+02  4.29346114389D-01 -5.63094883734D-09
     -8.32177520677D-11  1.00000000000D+00  2.37000000000D+03  0.00000000000D+00
      3.27670000000D+04  0.00000000000D+00  4.88944351673D-09  5.12227416039D-09
      9.14400000000D+04  0.00000000000D+00  0.00000000000D+00  0.00000000000D+00
E15 2025  6  9  1 10  0 -1.78908754606D-04 -2.48689957516D-12  0.00000000000D+00
      2.40000000000D+01 -9.84062500000D+01  2.53867717467D-09  4.77979693636D-01
     -4.62122261524D-06  1.56308989972D-04  3.42726707458D-07  5.44060679626D+03
      9.06000000000D+04 -2.60770320892D-08  1.66331011627D+00 -9.31322574615D-09
      9.99184553990D-01  3.51812500000D+02  7.16102042467D-02 -5.59166148657D-09
     -1.06075847056D-10  1.00000000000D+00  2.37000000000D+03  0.00000000000D+00
      3.27670000000D+04  0.00000000000D+00  5.58793544769D-09  6.05359673500D-09
      9.14400000000D+04  0.00000000000D+00  0.00000000000D+00  0.00000000000D+00
E18 2025  6  9  1 10  0  1.53268425493D-03  4.23625579060D-11  0.00000000000D+00
      2.40000000000D+01  8.75000000000D+00  6.24168856281D-09 -1.03809385783D+00
      4.47034835815D-08  1.63378409692D-01  1.95577740669D-06  5.28933947754D+03
      9.06000000000D+04  6.35161995888D-07  5.59788926781D-01 -2.59466469288D-06
      8.60435017715D-01  2.75281250000D+02  2.87735944360D+00 -9.47646616142D-09
      1.41577325835D-09  1.00000000000D+00  2.37000000000D+03  0.00000000000D+00
      3.27670000000D+04  1.00000000000D+00 -2.79396772385D-09 -3.49245965481D-09
      9.14400000000D+04  0.00000000000D+00  0.00000000000D+00  0.00000000000D+00
E27 2025  6  9  0 20  0 -6.83193211444D-04 -1.02460262497D-11  0.00000000000D+00
      1.90000000000D+01  9.60312500000D+01  2.71618456856D-09  2.37054844343D+00
      4.44985926151D-06  1.20691023767D-04  1.09560787678D-05  5.44061438560D+03
      8.76000000000D+04 -1.11758708954D-08 -4.32478486785D-01 -5.21540641785D-08
      9.63624599632D-01  1.10250000000D+02 -8.81962932496D-01 -5.18093009225D-09
     -4.77877048354D-10  1.00000000000D+00  2.37000000000D+03  0.00000000000D+00
      3.27670000000D+04  0.00000000000D+00  1.39698386192D-09  1.39698386192D-09
      9.14400000000D+04  0.00000000000D+00  0.00000000000D+00  0.00000000000D+00
E30 2025  6  9  0 50  0 -1.64314347785D-03 -4.06288336308D-11  0.00000000000D+00
      2.20000000000D+01  8.45625000000D+01  2.80475968664D-09  1.42658819405D+00
      3.70666384697D-06  2.42378446274D-04  1.08256936073D-05  5.44062568474D+03
      8.94000000000D+04  2.60770320892D-08 -4.30128907224D-01  5.58793544769D-09
      9.61439405250D-01  1.08875000000D+02  1.05597216066D+00 -5.27593404954D-09
     -5.06092509356D-10  1.00000000000D+00  2.37000000000D+03  0.00000000000D+00
      3.27670000000D+04  0.00000000000D+00  1.39698386192D-09  1.16415321827D-09
      9.14400000000D+04  0.00000000000D+00  0.00000000000D+00  0.00000000000D+00
E02 2025  6  9  1 10  0  2.25664000027D-04  2.77111666946D-12  0.00000000000D+00
      2.40000000000D+01  8.43125000000D+01  2.84011830233D-09  3.10042580968D+00
      4.02703881264D-06  2.07453267649D-04  1.11069530249D-05  5.44062216949D+03
      9.06000000000D+04  2.42143869400D-08 -4.29268070635D-01  4.65661287308D-08
      9.64046018055D-01  1.00593750000D+02  3.26265873895D-01 -5.25629037416D-09
     -4.66805158594D-10  0.00000000000D+00  2.37000000000D+03  0.00000000000D+00
      3.27670000000D+04  0.00000000000D+00 -1.62981450558D-09 -2.56113708019D-09
      9.16200000000D+04  0.00000000000D+00  0.00000000000D+00  0.00000000000D+00
E02 2025  6  9  1 10  0  2.25664640311D-04  2.77111666946D-12  0.00000000000D+00
      2.40000000000D+01  8.43125000000D+01  2.84011830233D-09  3.10042580968D+00
      4.02703881264D-06  2.07453267649D-04  1.11069530249D-05  5.44062216949D+03
      9.06000000000D+04  2.42143869400D-08 -4.29268070635D-01  4.65661287308D-08
      9.64046018055D-01  1.00593750000D+02  3.26265873895D-01 -5.25629037416D-09
     -4.66805158594D-10  1.00000000000D+00  2.37000000000D+03  0.00000000000D+00
      3.27670000000D+04  0.00000000000D+00 -1.62981450558D-09 -2.56113708019D-09
      9.16800000000D+04  0.00000000000D+00  0.00000000000D+00  0.00000000000D+00
